#dP2022  5 14  0  0  0.00000000      97 __u+U IGS14 FIT  IAC
## 2209 518400.00000000   900.00000000 59713 0.0000000000000
+  115   C06C07C08C09C10C11C12C13C14C16C19C20C21C22C23C24C25
+        C26C27C28C29C30C32C33C34C35C36C37C38C39C40C41C42C43
+        C44C45C46E02E03E04E05E07E08E09E10E11E12E13E14E15E18
+        E19E21E24E25E26E27E30E31E33E34E36G01G02G03G04G05G06
+        G07G08G09G10G12G13G14G15G16G17G18G19G20G21G22G23G24
+        G25G26G27G28G29G30G31G32J02J03R01R02R03R04R05R07R08
+        R09R11R12R13R14R15R17R18R19R20R21R22R24  0  0  0  0
++         7  7  7  7  7  7  7  7  7  7  6  6  6  6  5  6  6
++         5  5  5  6  5  6  6  6  6  5  6  6  7  6  6  6  6
++         6  6  6  4  4  4  4  4  4  4  5  4  4  4  4  4  5
++         4  4  4  4  4  4  4  4  4  4  4  4  3  4  3  3  3
++         3  3  3  3  3  3  4  4  3  3  3  4  3  3  4  3  3
++         3  3  3  4  3  3  4  4  9  9  7  6  6  6  6  6  6
++         6  6  6  7  7  6  6  6  7  7  6  7  6  0  0  0  0
%c M  cc GPS ccc cccc cccc cccc cccc ccccc ccccc ccccc ccccc
%c cc cc ccc ccc cccc cccc cccc cccc ccccc ccccc ccccc ccccc
%f  1.2500000  1.025000000  0.00000000000  0.000000000000000
%f  0.0000000  0.000000000  0.00000000000  0.000000000000000
%i    0    0    0    0      0      0      0      0         0
%i    0    0    0    0      0      0      0      0         0
/* INFORMATION & ANALYSIS CENTER (IAC)            FINAL DATA
/* S/V CLOCKS ARE ALIGNED TO GNSS TIME                      
/* G:C1WC2W R:C1PC2P E:C1XC5X C:C2IC6I J:C1CC2S             
/* PCV:IGS14_2196 OL/AL:FES2004  NONE     YN ORB:CoN CLK:CoN
*  2022 05 14  8  0  0.00000000
PC06 -10921.795905  23316.740168 -33404.894094    -18.259924
PC07 -15122.324907  38827.362962   5899.699517   -164.416686
PC08    470.530416  33229.578418  26045.951681    311.947755
PC09  -1428.925256  24316.839405 -34030.518346   -786.055765
PC10  -8119.295423  39035.103336  13214.591328    132.326221
PC11  26816.497387   5147.970102   5881.994826    351.266111
PC12  14035.163022  13643.024770  19922.556598   -616.362223
PC13   6223.041078  36911.380023  19790.151740    -33.283292
PC14  16857.744441   1638.488490 -22163.336384    474.612820
PC16 -14457.173629  21975.264766 -32830.696817    131.082644
PC19 -19532.476899   8594.376170  18000.000928    870.089689
PC20 -12403.264998  -9972.950000  22943.531847   -914.374328
PC21  -2694.023926  23733.959456 -14383.388072   -288.050490
PC22 -15673.859534  22944.096067   2387.115174   -970.505226
PC23   8305.062567 -16318.436434  21064.197875   -930.117478
PC24  17483.711583  20345.491251   7722.670610   -964.231030
PC25  18269.702589   1447.473250  21043.449115   -736.905477
PC26   7881.129157  25463.326426  -8331.323931    738.085780
PC27  -4127.128078 -15814.515904 -22645.015097    722.945798
PC28  16238.836819 -12562.926101 -18903.557549     66.566557
PC29 -27539.491763   2688.930011   3628.988644    554.442268
PC30 -22250.033982  -9536.481442 -13915.332914    498.461201
PC32   2524.809283 -23802.278666  14380.355154   -963.205728
PC33  19492.434199  -8682.374004 -17984.648357   -965.829960
PC34  22914.509823   9039.403369  13073.661278   -403.915454
PC35 -16791.508451  12784.722483  18263.004756    273.281864
PC36 -18371.622965  -2425.225456 -20840.317552   -964.211524
PC37  -6378.639973 -25491.397049   9381.454025   -912.213441
PC38  -6377.850843  29299.685998  29731.618846    232.023275
PC39 -20254.102198  21164.654539 -30360.619851     34.977218
PC40 -22058.061352  35664.298235   3415.960520    268.919420
PC41  15790.008523 -22839.941697  -2762.048672   -965.911244
PC42  11787.116094  10928.871803 -22760.666546   -968.843821
PC43  27649.199305  -2174.496876  -2980.509725   -924.213615
PC44   4399.193878  15798.611546  22558.977701    659.092153
PC45  -7968.843351  16524.683240 -21031.086193    756.603638
PC46 -17958.137124 -19281.611321  -9134.994137   -323.710593
PE02  16520.490942   2965.498798  24378.277296    299.062484
PE03  26137.020501  -3946.004128 -13331.493481   -558.089246
PE04 -23747.464115  17075.847485  -4522.821058  -1027.579661
PE05  13191.547352  11791.552788 -23721.234228   -181.782625
PE07   7225.502460 -20439.892285  20171.046196   -668.329581
PE08  23554.328882 -17279.178760   4829.096063   -528.817695
PE09  -7081.556810  20322.962614 -20305.635399   -517.708818
PE10  -6976.400350  14480.854224  24844.177262   -512.901748
PE11   4076.123706  19099.596267  22222.984599   3674.925990
PE12 -16474.835731   7890.199091  23291.133741   4614.596565
PE13  -3436.349112 -18837.303637 -22577.453418    428.667162
PE14  -7619.663612 -18569.931789 -24153.078122  -1838.100471
PE15  16519.471883  -7780.332520 -23293.793027    745.766671
PE18  18484.052214   7890.636816  16013.197692  -1450.845902
PE19 -25265.670805   1947.617503  15310.470697  -4638.614045
PE21 -10920.202385 -22064.495559 -16434.621503   -734.084713
PE24  -2224.175088  29417.818768  -2574.653080   -614.050157
PE25  10782.772970  22282.313724  16236.330435   -573.876490
PE26 -21751.227278 -18555.007799  -7675.909648  -1142.715825
PE27   1302.453254 -29533.242582   1411.928750   -298.397004
PE30  13171.961045 -18617.983692  18851.576464   -509.079212
PE31 -12642.762511  19566.922876 -18258.246846   -496.598858
PE33 -26646.011073  -7821.216656  10266.050995   -456.652985
PE34  26628.610734   7609.415429 -10461.558972   -516.968021
PE36  21214.116544  18748.590684   8612.688775   -373.417690
PG01 -22332.597419 -14052.898046   4107.009754    363.347394
PG02   9812.674237  19370.385331  15844.283148   -653.252553
PG03 -13054.263672  -9791.881139  20871.013681   -243.623243
PG04 -21216.278461  -3641.984765  15623.333161   -167.396126
PG05   6504.350326  22761.718713 -12055.310340    -81.786188
PG06  -5429.335750  14076.589851  21912.992707    302.773961
PG07 -20647.667665  -1003.423709 -16546.669847    322.049061
PG08 -14063.164217  -9420.330124 -20593.069593    -67.942091
PG09 -25015.672506   5758.351148   6811.623629   -336.859161
PG10  11474.742462 -19765.096239 -13132.217562   -413.910188
PG12  10517.934245  14682.933012  19245.286409   -215.212535
PG13   4219.313210  14524.443574 -21985.562642    311.295144
PG14 -13058.748251  18479.342770 -13839.232163   -108.195901
PG15  15874.959445   8192.736982 -20153.926878    -61.378671
PG16   -513.452846 -24981.955537  -8560.611323   -500.715721
PG17 -20360.539793  14174.823835   9980.545899    612.441234
PG18  20459.686482   1475.625671 -16939.980258    170.548527
PG19 -14835.549597  15294.547027  15461.254392    157.113934
PG20   1622.898811  26613.276838  -1136.188200    515.106125
PG21 -19960.829595 -17108.830622  -5147.997187    161.069495
PG22  11445.342697 -16625.966874  17586.620927    258.866175
PG23  14720.665062  -9499.544983 -19941.620651    -21.760832
PG24  22275.695155  14875.070574   -604.565202    241.357349
PG25  15298.999880  -1062.148786  21376.859042    324.491176
PG26   4449.558745 -25762.712037   3531.771080    205.504963
PG27   -949.763959 -15603.275662 -21631.175775    202.543780
PG28  -9197.653721  24358.393768  -5316.403977    358.187734
PG29  25374.177397  -3383.649675   7157.450949   -513.455798
PG30 -14425.674204   8070.201074 -20749.876260   -527.821007
PG31   3702.446483 -15847.170681  20774.335135   -177.545562
PG32  17856.764465 -16154.955862  11137.595639   -126.743496
PJ02 -20092.163791  30224.941705 -16742.342884     -0.123701
PJ03 -29008.548525  23594.354483  24604.258870     -2.142062
PR01 -15485.798733   3426.714376  19979.202851      8.696012
PR02 -18248.100023  17415.817989   4045.201309    518.331369
PR03  -9391.156210  19856.516639 -12964.409022     56.616239
PR04   4330.279365  10999.020045 -22570.888389    141.432606
PR05  15757.235855  -3743.573323 -19682.405864     92.845760
PR07   8751.021203 -19643.354546  13728.346245     35.058968
PR08  -4627.618464 -10948.284591  22628.429767    -65.117209
PR09   7245.746044 -11477.086280  21629.559666     54.956885
PR11 -10957.126176 -22156.477596  -6321.978674     39.041865
PR12 -12966.563426  -7593.122339 -20583.079509     18.435554
PR13  -7708.215044  10049.915032 -22156.762987    -22.277372
PR14   2769.171042  23209.494417 -10182.632912     25.723930
PR15  11017.419252  21860.182434   7184.038582     96.138638
PR17   -783.775932  10595.669699  23192.896659    525.912187
PR18  16205.518026  11024.584085  16299.990317    116.793622
PR19  24477.950872   6910.900077   1922.260292   -188.944938
PR20  18721.128001  -3121.582616 -17015.885470    -70.545718
PR21   -764.101871 -10796.514209 -23102.609174   -301.112782
PR22 -16963.346783 -10974.938827 -15656.582628   -183.060983
PR24 -18224.962168   4262.549148  17335.918866     93.669278
EOF
